{
    "links": {
        "self": "http://www.neowsapp.com/rest/v1/neo/3761733?api_key=iIulBulltgU6a56xZRHN4H3l9WmuAYTsLGpBGhQ2"
    },
    "id": "3761733",
    "neo_reference_id": "3761733",
    "name": "(2016 UL36)",
    "designation": "2016 UL36",
    "nasa_jpl_url": "http://ssd.jpl.nasa.gov/sbdb.cgi?sstr=3761733",
    "absolute_magnitude_h": 23.4,
    "estimated_diameter": {
        "kilometers": {
            "estimated_diameter_min": 0.0555334912,
            "estimated_diameter_max": 0.1241766613
        },
        "meters": {
            "estimated_diameter_min": 55.5334911581,
            "estimated_diameter_max": 124.1766612574
        },
        "miles": {
            "estimated_diameter_min": 0.0345069009,
            "estimated_diameter_max": 0.0771597762
        },
        "feet": {
            "estimated_diameter_min": 182.1964991311,
            "estimated_diameter_max": 407.4037573197
        }
    },
    "is_potentially_hazardous_asteroid": false,
    "close_approach_data": [
        {
            "close_approach_date": "2016-10-11",
            "close_approach_date_full": "2016-Oct-11 00:49",
            "epoch_date_close_approach": 1476146940000,
            "relative_velocity": {
                "kilometers_per_second": "7.2577785793",
                "kilometers_per_hour": "26128.0028854648",
                "miles_per_hour": "16234.9249040267"
            },
            "miss_distance": {
                "astronomical": "0.1850053057",
                "lunar": "71.9670639173",
                "kilometers": "27676399.671418859",
                "miles": "17197317.3056198942"
            },
            "orbiting_body": "Earth"
        }
    ],
    "orbital_data": {
        "orbit_id": "4",
        "orbit_determination_date": "2017-04-06 08:22:47",
        "first_observation_date": "2016-10-25",
        "last_observation_date": "2016-11-04",
        "data_arc_in_days": 10,
        "observations_used": 22,
        "orbit_uncertainty": "8",
        "minimum_orbit_intersection": ".164964",
        "jupiter_tisserand_invariant": "3.419",
        "epoch_osculation": "2457687.5",
        "eccentricity": ".5067030481974876",
        "semi_major_axis": "2.273999760118296",
        "inclination": "7.329485277602336",
        "ascending_node_longitude": "63.7606559746882",
        "orbital_period": "1252.518210030479",
        "perihelion_distance": "1.121757150066",
        "perihelion_argument": "299.7520250456795",
        "aphelion_distance": "3.426242370170593",
        "perihelion_time": "2457662.930963142492",
        "mean_anomaly": "7.061656427723829",
        "mean_motion": ".2874209709024826",
        "equinox": "J2000",
        "orbit_class": {
            "orbit_class_type": "AMO",
            "orbit_class_description": "Near-Earth asteroid orbits similar to that of 1221 Amor",
            "orbit_class_range": "1.017 AU < q (perihelion) < 1.3 AU"
        }
    },
    "is_sentry_object": false
}